start=new Date('2022-04-10T00:00:00.000Z').valueOf();
sats=[{"OBJECT_TYPE":"PAYLOAD","MEAN_MOTION_DOT":"-0.00000298","ARG_OF_PERICENTER":"62.8797","NORAD_CAT_ID":"48026","EPHEMERIS_TYPE":"0","RCS_SIZE":"LARGE","TIME_SYSTEM":"UTC","MEAN_ELEMENT_THEORY":"SGP4","BSTAR":"-0.00000108000000","SITE":"AFETR","OBJECT_NAME":"STARLINK-2278","LAUNCH_DATE":"2021-03-24","TLE_LINE2":"2 48026  53.0532 275.6645 0001612  62.8797 297.2356 15.06389793 58989","PERIAPSIS":"546.128","CENTER_NAME":"EARTH","COUNTRY_CODE":"US","PERIOD":"95.593","CLASSIFICATION_TYPE":"U","MEAN_MOTION_DDOT":"0.0000000000000","SEMIMAJOR_AXIS":"6925.380","OBJECT_ID":"2021-024BB","RA_OF_ASC_NODE":"275.6645","MEAN_MOTION":"15.06389793","FILE":"3395351","ELEMENT_SET_NO":"999","MEAN_ANOMALY":"297.2356","TLE_LINE1":"1 48026U 21024BB  22099.79364565 -.00000298  00000-0 -10800-5 0  9991","REF_FRAME":"TEME","INCLINATION":"53.0532","GP_ID":"200862909","ECCENTRICITY":"0.00016120","DECAY_DATE":null,"APOAPSIS":"548.361","REV_AT_EPOCH":"5898","EPOCH":"2022-04-09T19:02:50.984160"},{"SEMIMAJOR_AXIS":"6925.364","MEAN_MOTION_DDOT":"0.0000000000000","CLASSIFICATION_TYPE":"U","FILE":"3395351","MEAN_ANOMALY":"284.9595","ELEMENT_SET_NO":"999","MEAN_MOTION":"15.06394849","OBJECT_ID":"2021-024BC","RA_OF_ASC_NODE":"251.1533","DECAY_DATE":null,"GP_ID":"200863139","ECCENTRICITY":"0.00014710","INCLINATION":"53.0543","TLE_LINE1":"1 48027U 21024BC  22099.68720372  .00000480  00000-0  51107-4 0  9997","REF_FRAME":"TEME","EPOCH":"2022-04-09T16:29:34.401408","REV_AT_EPOCH":"5931","APOAPSIS":"548.248","ARG_OF_PERICENTER":"75.1557","OBJECT_TYPE":"PAYLOAD","MEAN_MOTION_DOT":"0.00000480","SITE":"AFETR","MEAN_ELEMENT_THEORY":"SGP4","BSTAR":"0.00005110700000","RCS_SIZE":"LARGE","TIME_SYSTEM":"UTC","EPHEMERIS_TYPE":"0","NORAD_CAT_ID":"48027","PERIAPSIS":"546.211","TLE_LINE2":"2 48027  53.0543 251.1533 0001471  75.1557 284.9595 15.06394849 59315","CENTER_NAME":"EARTH","LAUNCH_DATE":"2021-03-24","OBJECT_NAME":"STARLINK-2300","PERIOD":"95.592","COUNTRY_CODE":"US"},{"APOAPSIS":"548.424","EPOCH":"2022-04-09T22:00:00.999936","REV_AT_EPOCH":"361","TLE_LINE1":"1 48028U 21024BD  22099.91667824 -.00014197  00000-0 -93611-3 0  9993","INCLINATION":"53.0530","REF_FRAME":"TEME","DECAY_DATE":null,"GP_ID":"200861914","ECCENTRICITY":"0.00017450","ELEMENT_SET_NO":"999","FILE":"3395351","MEAN_ANOMALY":"50.3451","MEAN_MOTION":"15.06399234","OBJECT_ID":"2021-024BD","RA_OF_ASC_NODE":"205.1273","CLASSIFICATION_TYPE":"U","MEAN_MOTION_DDOT":"0.0000000000000","SEMIMAJOR_AXIS":"6925.351","COUNTRY_CODE":"US","PERIOD":"95.592","OBJECT_NAME":"STARLINK-2264","TLE_LINE2":"2 48028  53.0530 205.1273 0001745  47.4933  50.3451 15.06399234  3617","PERIAPSIS":"546.007","CENTER_NAME":"EARTH","LAUNCH_DATE":"2021-03-24","TIME_SYSTEM":"UTC","RCS_SIZE":"LARGE","EPHEMERIS_TYPE":"0","NORAD_CAT_ID":"48028","SITE":"AFETR","MEAN_ELEMENT_THEORY":"SGP4","BSTAR":"-0.00093611000000","OBJECT_TYPE":"PAYLOAD","MEAN_MOTION_DOT":"-0.00014197","ARG_OF_PERICENTER":"47.4933"},{"OBJECT_NAME":"STARLINK-2299","TLE_LINE2":"2 48029  53.0538 270.3903 0001700  50.6415 309.4725 15.06392324 59124","PERIAPSIS":"546.060","CENTER_NAME":"EARTH","LAUNCH_DATE":"2021-03-24","COUNTRY_CODE":"US","PERIOD":"95.593","OBJECT_TYPE":"PAYLOAD","MEAN_MOTION_DOT":"-0.00000977","ARG_OF_PERICENTER":"50.6415","TIME_SYSTEM":"UTC","RCS_SIZE":"LARGE","EPHEMERIS_TYPE":"0","NORAD_CAT_ID":"48029","SITE":"AFETR","MEAN_ELEMENT_THEORY":"SGP4","BSTAR":"-0.00004667900000","INCLINATION":"53.0538","TLE_LINE1":"1 48029U 21024BE  22099.85860550 -.00000977  00000-0 -46679-4 0  9992","REF_FRAME":"TEME","DECAY_DATE":null,"GP_ID":"200862667","ECCENTRICITY":"0.00017000","APOAPSIS":"548.414","EPOCH":"2022-04-09T20:36:23.515200","REV_AT_EPOCH":"5912","MEAN_MOTION_DDOT":"0.0000000000000","CLASSIFICATION_TYPE":"U","SEMIMAJOR_AXIS":"6925.372","FILE":"3395351","ELEMENT_SET_NO":"999","MEAN_ANOMALY":"309.4725","MEAN_MOTION":"15.06392324","RA_OF_ASC_NODE":"270.3903","OBJECT_ID":"2021-024BE"},{"ARG_OF_PERICENTER":"54.0618","OBJECT_TYPE":"PAYLOAD","MEAN_MOTION_DOT":"0.00004024","SITE":"AFETR","MEAN_ELEMENT_THEORY":"SGP4","BSTAR":"0.00028882000000","TIME_SYSTEM":"UTC","RCS_SIZE":"LARGE","EPHEMERIS_TYPE":"0","NORAD_CAT_ID":"48030","TLE_LINE2":"2 48030  53.0546 275.2460 0001785  54.0618 306.0537 15.06406782 58995","PERIAPSIS":"545.957","CENTER_NAME":"EARTH","LAUNCH_DATE":"2021-03-24","OBJECT_NAME":"STARLINK-2268","PERIOD":"95.592","COUNTRY_CODE":"US","SEMIMAJOR_AXIS":"6925.328","MEAN_MOTION_DDOT":"0.0000000000000","CLASSIFICATION_TYPE":"U","ELEMENT_SET_NO":"999","FILE":"3395351","MEAN_MOTION":"15.06406782","MEAN_ANOMALY":"306.0537","RA_OF_ASC_NODE":"275.2460","OBJECT_ID":"2021-024BF","DECAY_DATE":null,"GP_ID":"200863409","ECCENTRICITY":"0.00017850","INCLINATION":"53.0546","TLE_LINE1":"1 48030U 21024BF  22099.88578913  .00004024  00000-0  28882-3 0  9996","REF_FRAME":"TEME","EPOCH":"2022-04-09T21:15:32.180832","REV_AT_EPOCH":"5899","APOAPSIS":"548.429"},{"MEAN_MOTION_DDOT":"0.0000000000000","CLASSIFICATION_TYPE":"U","SEMIMAJOR_AXIS":"6925.380","OBJECT_ID":"2021-024BG","RA_OF_ASC_NODE":"160.1054","MEAN_MOTION":"15.06389847","FILE":"3395351","ELEMENT_SET_NO":"999","MEAN_ANOMALY":"278.1770","TLE_LINE1":"1 48031U 21024BG  22099.91667824  .00011019  00000-0  75766-3 0  9996","INCLINATION":"53.0529","REF_FRAME":"TEME","GP_ID":"200863639","ECCENTRICITY":"0.00017460","DECAY_DATE":null,"APOAPSIS":"548.454","REV_AT_EPOCH":"361","EPOCH":"2022-04-09T22:00:00.999936","MEAN_MOTION_DOT":"0.00011019","OBJECT_TYPE":"PAYLOAD","ARG_OF_PERICENTER":"42.0223","NORAD_CAT_ID":"48031","EPHEMERIS_TYPE":"0","RCS_SIZE":"LARGE","TIME_SYSTEM":"UTC","BSTAR":"0.00075766000000","MEAN_ELEMENT_THEORY":"SGP4","SITE":"AFETR","OBJECT_NAME":"STARLINK-2267","LAUNCH_DATE":"2021-03-24","CENTER_NAME":"EARTH","PERIAPSIS":"546.036","TLE_LINE2":"2 48031  53.0529 160.1054 0001746  42.0223 278.1770 15.06389847  3613","COUNTRY_CODE":"US","PERIOD":"95.593"},{"SITE":"AFETR","MEAN_ELEMENT_THEORY":"SGP4","BSTAR":"-0.00000691800000","RCS_SIZE":"LARGE","TIME_SYSTEM":"UTC","NORAD_CAT_ID":"48033","EPHEMERIS_TYPE":"0","ARG_OF_PERICENTER":"66.2039","OBJECT_TYPE":"PAYLOAD","MEAN_MOTION_DOT":"-0.00000384","PERIOD":"95.593","COUNTRY_CODE":"US","PERIAPSIS":"546.187","TLE_LINE2":"2 48033  53.0632 270.4031 0001530  66.2039 293.9111 15.06389102 58599","CENTER_NAME":"EARTH","LAUNCH_DATE":"2021-03-24","OBJECT_NAME":"STARLINK-2286","FILE":"3395201","MEAN_ANOMALY":"293.9111","ELEMENT_SET_NO":"999","MEAN_MOTION":"15.06389102","OBJECT_ID":"2021-024BJ","RA_OF_ASC_NODE":"270.4031","SEMIMAJOR_AXIS":"6925.382","CLASSIFICATION_TYPE":"U","MEAN_MOTION_DDOT":"0.0000000000000","EPOCH":"2022-04-09T20:20:28.737312","REV_AT_EPOCH":"5859","APOAPSIS":"548.307","DECAY_DATE":null,"ECCENTRICITY":"0.00015300","GP_ID":"200837818","REF_FRAME":"TEME","TLE_LINE1":"1 48033U 21024BJ  22099.84755483 -.00000384  00000-0 -69180-5 0  9999","INCLINATION":"53.0632"},{"ARG_OF_PERICENTER":"55.6993","OBJECT_TYPE":"PAYLOAD","MEAN_MOTION_DOT":"0.00000187","SITE":"AFETR","MEAN_ELEMENT_THEORY":"SGP4","BSTAR":"0.00003144000000","TIME_SYSTEM":"UTC","RCS_SIZE":"LARGE","EPHEMERIS_TYPE":"0","NORAD_CAT_ID":"48034","TLE_LINE2":"2 48034  53.0548 270.9444 0001692  55.6993 304.4156 15.06400967 59107","PERIAPSIS":"546.039","CENTER_NAME":"EARTH","LAUNCH_DATE":"2021-03-24","OBJECT_NAME":"STARLINK-2288","PERIOD":"95.592","COUNTRY_CODE":"US","SEMIMAJOR_AXIS":"6925.346","MEAN_MOTION_DDOT":"0.0000000000000","CLASSIFICATION_TYPE":"U","FILE":"3395351","MEAN_MOTION":"15.06400967","ELEMENT_SET_NO":"999","MEAN_ANOMALY":"304.4156","OBJECT_ID":"2021-024BK","RA_OF_ASC_NODE":"270.9444","DECAY_DATE":null,"GP_ID":"200862168","ECCENTRICITY":"0.00016920","INCLINATION":"53.0548","TLE_LINE1":"1 48034U 21024BK  22099.73327941  .00000187  00000-0  31440-4 0  9998","REF_FRAME":"TEME","EPOCH":"2022-04-09T17:35:55.341024","REV_AT_EPOCH":"5910","APOAPSIS":"548.382"},{"MEAN_MOTION_DDOT":"0.0000000000000","CLASSIFICATION_TYPE":"U","SEMIMAJOR_AXIS":"6925.367","ELEMENT_SET_NO":"999","FILE":"3395351","MEAN_ANOMALY":"304.3764","MEAN_MOTION":"15.06393941","RA_OF_ASC_NODE":"270.6170","OBJECT_ID":"2021-024BM","TLE_LINE1":"1 48036U 21024BM  22099.80700067 -.00000977  00000-0 -46687-4 0  9990","INCLINATION":"53.0552","REF_FRAME":"TEME","DECAY_DATE":null,"ECCENTRICITY":"0.00017690","GP_ID":"200862910","APOAPSIS":"548.457","EPOCH":"2022-04-09T19:22:04.857888","REV_AT_EPOCH":"5911","MEAN_MOTION_DOT":"-0.00000977","OBJECT_TYPE":"PAYLOAD","ARG_OF_PERICENTER":"55.7392","RCS_SIZE":"LARGE","TIME_SYSTEM":"UTC","EPHEMERIS_TYPE":"0","NORAD_CAT_ID":"48036","SITE":"AFETR","BSTAR":"-0.00004668700000","MEAN_ELEMENT_THEORY":"SGP4","OBJECT_NAME":"STARLINK-2295","CENTER_NAME":"EARTH","PERIAPSIS":"546.007","TLE_LINE2":"2 48036  53.0552 270.6170 0001769  55.7392 304.3764 15.06393941 59114","LAUNCH_DATE":"2021-03-24","COUNTRY_CODE":"US","PERIOD":"95.593"},{"MEAN_MOTION_DDOT":"0.0000000000000","CLASSIFICATION_TYPE":"U","SEMIMAJOR_AXIS":"6925.359","OBJECT_ID":"2021-027A","RA_OF_ASC_NODE":"36.9048","ELEMENT_SET_NO":"999","FILE":"3394949","MEAN_MOTION":"15.06396616","MEAN_ANOMALY":"281.5309","TLE_LINE1":"1 48092U 21027A   22099.51993054  .00010143  00000-0  69891-3 0  9998","REF_FRAME":"TEME","INCLINATION":"53.0567","GP_ID":"200828107","ECCENTRICITY":"0.00016700","DECAY_DATE":null,"APOAPSIS":"548.380","REV_AT_EPOCH":"5790","EPOCH":"2022-04-09T12:28:41.998656","MEAN_MOTION_DOT":"0.00010143","OBJECT_TYPE":"PAYLOAD","ARG_OF_PERICENTER":"78.5868","EPHEMERIS_TYPE":"0","NORAD_CAT_ID":"48092","RCS_SIZE":"LARGE","TIME_SYSTEM":"UTC","BSTAR":"0.00069891000000","MEAN_ELEMENT_THEORY":"SGP4","SITE":"AFETR","OBJECT_NAME":"STARLINK-2048","LAUNCH_DATE":"2021-04-07","CENTER_NAME":"EARTH","PERIAPSIS":"546.067","TLE_LINE2":"2 48092  53.0567  36.9048 0001670  78.5868 281.5309 15.06396616 57909","COUNTRY_CODE":"US","PERIOD":"95.592"}];
